HST                     
1 20580U 90037B   24162.34717607  .00008242  00000+0  38863-3 0  9990
2 20580  28.4698  30.9556 0002566 329.2415  30.8027 15.17669789675992
POLAR                   
1 23802U 96013A   24161.19597432  .00000184  00000+0  00000+0 0  9999
2 23802  79.1172 234.7262 5872450 234.0344  56.3975  1.29847214135272
SWAS                    
1 25560U 98071A   24162.55496100  .00005766  00000+0  46593-3 0  9991
2 25560  69.8992 315.3043 0009169 290.0623  69.9549 15.00310884386390
CXO                     
1 25867U 99040B   24165.21824671  .00000417  00000+0  00000+0 0  9999
2 25867  41.0768 154.0945 8897945 296.2745 359.9459  0.37810994 14548
XMM-NEWTON              
1 25989U 99066A   24162.40487597 -.00000044  00000+0  00000+0 0  9999
2 25989  67.8127 292.9768 5148612  77.2598 351.8560  0.50138697 19326
TERRA                   
1 25994U 99068A   24162.59064905  .00001012  00000+0  22112-3 0  9998
2 25994  98.0483 226.2721 0002803  53.4152  81.3264 14.59804101302088
CLUSTER II-FM7 (SAMBA)  
1 26410U 00041A   24164.81331821  .00000900  00000+0  00000+0 0  9999
2 26410 139.2556 358.3510 7477807 213.3044 359.6976  0.44205383 17022
CLUSTER II-FM6 (SALSA)  
1 26411U 00041B   24164.73505066  .00003119  00000+0  00000+0 0  9990
2 26411 148.4785  25.8845 9000414 241.2561 359.7214  0.44241914 17080
CLUSTER II-FM5 (RUMBA)  
1 26463U 00045A   24164.79809341  .00002543  00000+0  00000+0 0  9990
2 26463 150.4429  19.7067 8532712 235.1933 359.6611  0.44220641 16957
CLUSTER II-FM8 (TANGO)  
1 26464U 00045B   24164.81337769  .00000901  00000+0  00000+0 0  9990
2 26464 139.2835 358.3759 7474192 213.3299 359.7074  0.44222351 17037
ODIN                    
1 26702U 01007A   24162.56849226  .00020803  00000+0  90130-3 0  9990
2 26702  97.4815 177.7745 0005525 313.6026  46.4751 15.22404629275892
TIMED                   
1 26998U 01055B   24162.60727051  .00003108  00000+0  31477-3 0  9994
2 26998  74.0717 274.3646 0002011 299.3933  60.7048 14.91412618220844
INTEGRAL                
1 27540U 02048A   24161.49083184 -.00000197  00000+0  00000+0 0  9999
2 27540  89.1387  21.1412 8647303 282.2308  73.8555  0.37581012 23851
CORIOLIS                
1 27640U 03001A   24162.60110084  .00000264  00000+0  14585-3 0  9995
2 27640  98.7126 169.9267 0014318 169.2388 190.9098 14.19479388109705
SORCE                   
1 27651U 03004A   24162.28110227  .00005031  00000+0  46119-3 0  9998
2 27651  39.9922 122.2265 0021307 192.5251 167.5012 14.95151219161216
MOST                    
1 27843U 03031D   24162.57813271  .00000205  00000+0  11501-3 0  9997
2 27843  98.7056 169.6482 0009250 213.3436 146.7159 14.20966069 86083
SCISAT 1                
1 27858U 03036A   24162.50878206  .00001238  00000+0  17143-3 0  9995
2 27858  73.9311 192.9580 0006300  56.1702 304.0072 14.79208468122426
SWIFT                   
1 28485U 04047A   24162.54104734  .00013824  00000+0  61472-3 0  9995
2 28485  20.5548 228.7947 0008372 188.3814 171.6483 15.19047850 73162
CALIPSO                 
1 29108U 06016B   24162.53163187  .00002467  00000+0  46175-3 0  9996
2 29108  98.4177 144.2337 0001759  86.7432 273.3971 14.65777326964979
HINODE (SOLAR-B)        
1 29479U 06041A   24162.59059862  .00001841  00000+0  34056-3 0  9995
2 29479  98.0888 178.0136 0019544 101.2314 259.1088 14.66445510946812
SHIJIAN-6 02A (SJ-6 02A)
1 29505U 06046A   24162.55740040  .00007943  00000+0  58876-3 0  9996
2 29505  97.7211 189.6702 0004970 133.9318 226.2318 15.03362747961032
SHIJIAN-6 02B (SJ-6 02B)
1 29506U 06046B   24162.56506703  .00003074  00000+0  26992-3 0  9999
2 29506  97.7396 187.5333 0001809  31.9953 328.1378 14.97332509960340
FGRST (GLAST)           
1 33053U 08029A   24162.59236501  .00005019  00000+0  23273-3 0  9993
2 33053  25.5819 254.6103 0009785 318.0324  41.9462 15.16803662883572
WISE                    
1 36119U 09071A   24162.60267148  .00053971  00000+0  56812-3 0  9995
2 36119  97.1443 199.1079 0003582 137.8200 222.3336 15.64124656807214
SDO                     
1 36395U 10005A   24161.36340913 -.00000084  00000+0  00000+0 0  9996
2 36395  33.1114  97.7106 0000621 214.5205 335.0388  1.00271527 52663
CRYOSAT 2               
1 36508U 10013A   24162.60239156  .00000502  00000+0  12388-3 0  9995
2 36508  92.0343  99.4250 0001734  10.2830 349.8412 14.51904560751204
X-SAT                   
1 37389U 11015C   24162.59637792  .00000274  00000+0  13524-3 0  9991
2 37389  98.2926 166.9442 0013884 352.0861   8.0098 14.24706892682777
GCOM-W1 (SHIZUKU)       
1 38337U 12025A   24162.57345264  .00001343  00000+0  30808-3 0  9997
2 38337  98.2031 102.6987 0001879  82.3957  90.7601 14.57093697641758
NUSTAR                  
1 38358U 12031A   24162.58334491  .00004804  00000+0  34792-3 0  9999
2 38358   6.0267 111.9084 0009010  31.7418 358.2518 14.96282315  1305
NEOSSAT                 
1 39089U 13009D   24162.49044064  .00000404  00000+0  15630-3 0  9993
2 39089  98.4045 350.0322 0009979 284.0732  75.9344 14.35175105591049
BRITE-AUSTRIA           
1 39091U 13009F   24162.49336873  .00000466  00000+0  17557-3 0  9996
2 39091  98.3855 350.2354 0009155 281.2741  78.7416 14.35811648591301
IRIS                    
1 39197U 13033A   24162.48107667  .00002780  00000+0  35518-3 0  9994
2 39197  97.9641 353.1554 0025606 200.0623 159.9586 14.82009834591091
HISAKI (SPRINT-A)       
1 39253U 13049A   24162.53477864  .00000190  00000+0  16687-3 0  9998
2 39253  29.7214   4.8151 0136911 165.3884 195.0699 13.55399114531407
CASSIOPE                
1 39265U 13055A   24162.56493249  .00016818  00000+0  35540-3 0  9999
2 39265  80.9534 203.1628 0496216 287.6246  67.1362 14.70152410557424
STSAT-3                 
1 39422U 13066G   24162.53097817  .00004817  00000+0  44480-3 0  9993
2 39422  97.5194 142.3090 0021601  26.6156 333.6169 14.94884870573821
SWARM B                 
1 39451U 13067A   24162.58673695  .00004833  00000+0  22102-3 0  9990
2 39451  87.7526 204.4798 0003042  94.3081 265.8511 15.20316737570990
SWARM A                 
1 39452U 13067B   24162.54538119  .00008787  00000+0  27976-3 0  9994
2 39452  87.3424 325.4970 0003230  96.3902 263.7717 15.32415048592743
SWARM C                 
1 39453U 13067C   24162.54527259  .00008741  00000+0  27828-3 0  9994
2 39453  87.3422 324.0895 0003239  96.6605 263.5015 15.32416205592706
BRITE-CA1 (TORONTO)     
1 40020U 14033L   24162.41579444  .00002783  00000+0  45306-3 0  9990
2 40020  97.8772 299.7770 0084433 113.5182 247.4924 14.69432142533876
OCO 2                   
1 40059U 14035A   24162.60586719  .00001202  00000+0  27696-3 0  9995
2 40059  98.2024 103.4854 0001282  65.3189 294.8143 14.57069401528783
BRITE-PL2 (HEWELIUSZ)   
1 40119U 14049B   24162.22802984  .00004177  00000+0  45036-3 0  9992
2 40119  97.8827 261.9253 0016344  32.2850 327.9363 14.88861601531548
RESURS-P 2              
1 40360U 14087A   24162.58001711  .00031059  00000+0  39857-3 0  9993
2 40360  97.1514 249.0996 0004672 325.3046  34.7906 15.59072315528500
MMS 1                   
1 40482U 15011A   24161.83335648 -.00000964  00000+0  00000+0 0  9998
2 40482  47.6553  11.6849 9101541 146.2481  95.8685  0.28399051  1353
MMS 2                   
1 40483U 15011B   24161.83335648 -.00000964  00000+0  00000+0 0  9999
2 40483  47.6623  11.6643 9101910 146.2631  95.8678  0.28400252  1359
MMS 3                   
1 40484U 15011C   24161.83335648 -.00000964  00000+0  00000+0 0  9990
2 40484  47.6553  11.6810 9102135 146.2576  95.8482  0.28399058  1350
MMS 4                   
1 40485U 15011D   24161.83335648 -.00000964  00000+0  00000+0 0  9991
2 40485  47.6644  11.6717 9101334 146.2616  95.8503  0.28400256  1350
ASTROSAT                
1 40930U 15052A   24162.51607055  .00002860  00000+0  29192-3 0  9994
2 40930   5.9996  46.7380 0008537 335.8525  24.1202 14.78978872470427
DAMPE                   
1 41173U 15078A   24162.57838616  .00002341  00000+0  90550-4 0  9998
2 41173  97.4293 156.1378 0013499 158.3794 201.8018 15.27149386471970
PISAT                   
1 41784U 16059B   24162.60066748  .00002266  00000+0  41970-3 0  9996
2 41784  97.8333 184.9112 0031430  37.0297 323.3068 14.65922774411697
HXMT (HUIYAN)           
1 42758U 17034A   24162.57076088  .00009563  00000+0  52258-3 0  9994
2 42758  43.0155 311.4452 0012917 117.3000 242.9163 15.14387112385835
FLYING LAPTOP           
1 42831U 17042G   24162.55606075  .00003129  00000+0  28952-3 0  9994
2 42831  97.3855 343.8862 0014163  98.6341 261.6486 14.95129120376145
ZHANGHENG 1 (CSES)      
1 43194U 18015C   24162.56617028  .00015479  00000+0  69938-3 0  9999
2 43194  97.6097 306.2201 0013407 161.0014 199.1724 15.20969564352687
SALSAT                  
1 46495U 20068K   24162.46266215  .00008247  00000+0  46895-3 0  9996
2 46495  97.8161 121.5859 0013084 344.9477  15.1362 15.13078082203296
IXPE                    
1 49954U 21121A   24162.58334491  .00005297  00000+0  36737-3 0  9991
2 49954   0.2311  82.1795 0009259 184.9256 137.9762 14.98163231  5448
